     3.04           N: GNSS NAV DATA    M: MIXED            RINEX VERSION / TYPE
ssrcrin-15.6.1x                         20250101 201500 UTC PGM / RUN BY / DATE 
    18                                                      LEAP SECONDS        
                                                            END OF HEADER       
E31 2025 01 01 20 10 00-4.888587864116E-05-1.463718035666E-12 0.000000000000E+00
     4.500000000000E+01-1.771875000000E+01 3.535861568541E-09 1.120525385603E+00
    -8.009374141693E-07 1.747396308929E-04 6.282702088356E-06 5.440600759506E+03
     3.318000000000E+05 2.421438694000E-08 2.413396158266E+00 3.911554813385E-08
     9.641980035399E-01 2.063437500000E+02 1.894495048637E-01-5.552016978078E-09
    -4.764484174176E-10 5.170000000000E+02 2.347000000000E+03
     3.120000000000E+00 0.000000000000E+00 2.095475792885E-09 3.259629011154E-09
     3.326150000000E+05
E03 2025 01 01 20 10 00-1.638099784032E-04-2.501110429876E-12 0.000000000000E+00
     4.500000000000E+01-1.680625000000E+02 2.677968691002E-09 1.284840674886E-01
    -7.845461368561E-06 2.410700544715E-04 1.085735857487E-05 5.440615922928E+03
     3.318000000000E+05-4.470348358154E-08 3.130737936030E-01-4.097819328308E-08
     9.635961634308E-01 1.100625000000E+02 9.274242265531E-01-5.222360389415E-09
     2.332240004300E-10 2.580000000000E+02 2.347000000000E+03
     3.120000000000E+00 0.000000000000E+00 6.984919309616E-10 0.000000000000E+00
     3.326400000000E+05
C36 2025 01 01 20 00 00 2.460872055963E-04 5.360156762890E-12 0.000000000000E+00
     1.000000000000E+00 9.718750000000E+00 4.629478550650E-09 2.068944802393E+00
     3.660097718239E-07 4.295960534364E-04 5.086418241262E-06 5.282637758255E+03
     3.312000000000E+05 2.700835466385E-08 1.787329517243E+00-1.396983861923E-09
     9.452918954303E-01 2.508281250000E+02-7.798399860942E-01-7.016006530548E-09
     2.853690296227E-10 0.000000000000E+00 9.910000000000E+02 0.000000000000E+00
     2.000000000000E+00 0.000000000000E+00-2.060000000000E-08-2.060000000000E-08
     3.326580000000E+05 1.000000000000E+00
E26 2025 01 01 20 10 00-1.662599970587E-04 1.091393642128E-11 0.000000000000E+00
     4.500000000000E+01 1.746250000000E+02 2.773686963767E-09 2.259832604424E+00
     8.227303624153E-06 3.933435073122E-04 8.884817361832E-07 5.440606245041E+03
     3.318000000000E+05 3.725290298462E-08-1.776974516407E+00 4.284083843231E-08
     9.930091920301E-01 3.352812500000E+02-1.484765823051E+00-5.681665235591E-09
     1.975082270104E-10 5.170000000000E+02 2.347000000000E+03
     3.120000000000E+00 0.000000000000E+00-6.752088665962E-09-6.752088665962E-09
     3.326750000000E+05
S36 2025 01 01 20 24 48 0.000000000000E+00 0.000000000000E+00 3.326880000000E+05
     4.200368800000E+04 0.000000000000E+00 0.000000000000E+00 6.300000000000E+01
     3.674846960000E+03 0.000000000000E+00 0.000000000000E+00 3.276700000000E+04
     0.000000000000E+00 0.000000000000E+00 0.000000000000E+00 1.220000000000E+02
E21 2025 01 01 20 10 00-6.376346573234E-04-2.231104190287E-12 0.000000000000E+00
     4.500000000000E+01-2.303125000000E+01 3.547290616036E-09 1.836097722989E+00
    -1.033768057823E-06 2.545494353399E-04 6.208196282387E-06 5.440605621338E+03
     3.318000000000E+05-7.823109626770E-08 2.413467237066E+00 7.450580596924E-09
     9.642220027110E-01 2.112500000000E+02 1.033398113157E+00-5.587018436029E-09
    -5.121641908372E-10 2.580000000000E+02 2.347000000000E+03
     3.120000000000E+00 0.000000000000E+00 0.000000000000E+00 0.000000000000E+00
     3.326900000000E+05
E31 2025 01 01 20 10 00-4.888745024800E-05-1.477928890381E-12 0.000000000000E+00
     4.500000000000E+01-1.771875000000E+01 3.535861568541E-09 1.120525385603E+00
    -8.009374141693E-07 1.747396308929E-04 6.282702088356E-06 5.440600759506E+03
     3.318000000000E+05 2.421438694000E-08 2.413396158266E+00 3.911554813385E-08
     9.641980035399E-01 2.063437500000E+02 1.894495048637E-01-5.552016978078E-09
    -4.764484174176E-10 2.580000000000E+02 2.347000000000E+03
     3.120000000000E+00 0.000000000000E+00 2.095475792885E-09 0.000000000000E+00
     3.326900000000E+05
S23 2025 01 01 20 25 36 0.000000000000E+00 0.000000000000E+00 3.327360000000E+05
     3.866796400000E+04 0.000000000000E+00 0.000000000000E+00 6.300000000000E+01
     1.681330800000E+04 0.000000000000E+00 0.000000000000E+00 3.276700000000E+04
     0.000000000000E+00 0.000000000000E+00 0.000000000000E+00 5.900000000000E+01
E26 2025 01 01 20 10 00-1.662603463046E-04 1.092814727599E-11 0.000000000000E+00
     4.500000000000E+01 1.746250000000E+02 2.773686963767E-09 2.259832604424E+00
     8.227303624153E-06 3.933435073122E-04 8.884817361832E-07 5.440606245041E+03
     3.318000000000E+05 3.725290298462E-08-1.776974516407E+00 4.284083843231E-08
     9.930091920301E-01 3.352812500000E+02-1.484765823051E+00-5.681665235591E-09
     1.975082270104E-10 2.580000000000E+02 2.347000000000E+03
     3.120000000000E+00 0.000000000000E+00-6.752088665962E-09 0.000000000000E+00
     3.327400000000E+05
S36 2025 01 01 20 27 12 0.000000000000E+00 0.000000000000E+00 3.328400000000E+05
     4.200368800000E+04 0.000000000000E+00 0.000000000000E+00 6.300000000000E+01
     3.674846960000E+03 0.000000000000E+00 0.000000000000E+00 3.276700000000E+04
     0.000000000000E+00 0.000000000000E+00 0.000000000000E+00 1.230000000000E+02
S23 2025 01 01 20 27 28 0.000000000000E+00 0.000000000000E+00 3.328620000000E+05
     3.866796400000E+04 0.000000000000E+00 0.000000000000E+00 6.300000000000E+01
     1.681330800000E+04 0.000000000000E+00 0.000000000000E+00 3.276700000000E+04
     0.000000000000E+00 0.000000000000E+00 0.000000000000E+00 6.000000000000E+01
S23 2025 01 01 20 29 36 0.000000000000E+00 0.000000000000E+00 3.329850000000E+05
     3.866796400000E+04 0.000000000000E+00 0.000000000000E+00 6.300000000000E+01
     1.681330800000E+04 0.000000000000E+00 0.000000000000E+00 3.276700000000E+04
     0.000000000000E+00 0.000000000000E+00 0.000000000000E+00 6.100000000000E+01
S36 2025 01 01 20 29 52 0.000000000000E+00 0.000000000000E+00 3.329920000000E+05
     4.200368800000E+04 0.000000000000E+00 0.000000000000E+00 6.300000000000E+01
     3.674846960000E+03 0.000000000000E+00 0.000000000000E+00 3.276700000000E+04
     0.000000000000E+00 0.000000000000E+00 0.000000000000E+00 1.240000000000E+02
